[{"OBJECT_NAME":"STARLINK-30090","OBJECT_ID":"2023-056H","EPOCH":"2026-03-09T22:00:01.999584","MEAN_MOTION":15.31099367,"ECCENTRICITY":0.00019801,"INCLINATION":43.0003,"RA_OF_ASC_NODE":207.7754,"ARG_OF_PERICENTER":278.4414,"MEAN_ANOMALY":54.3109,"EPHEMERIS_TYPE":0,"CLASSIFICATION_TYPE":"U","NORAD_CAT_ID":56293,"ELEMENT_SET_NO":999,"REV_AT_EPOCH":577,"BSTAR":0.021192956,"MEAN_MOTION_DOT":0.0069545,"MEAN_MOTION_DDOT":0},{"OBJECT_NAME":"SL-4 R\/B","OBJECT_ID":"2014-021B","EPOCH":"2026-03-09T02:37:43.173408","MEAN_MOTION":15.39160447,"ECCENTRICITY":0.00975963,"INCLINATION":51.6078,"RA_OF_ASC_NODE":340.109,"ARG_OF_PERICENTER":100.9217,"MEAN_ANOMALY":260.2766,"EPHEMERIS_TYPE":0,"CLASSIFICATION_TYPE":"U","NORAD_CAT_ID":39679,"ELEMENT_SET_NO":999,"REV_AT_EPOCH":65618,"BSTAR":0.00043042763,"MEAN_MOTION_DOT":0.00019652,"MEAN_MOTION_DDOT":0}]
